OBJECT_NAME,OBJECT_ID,EPOCH,MEAN_MOTION,ECCENTRICITY,INCLINATION,RA_OF_ASC_NODE,ARG_OF_PERICENTER,MEAN_ANOMALY,EPHEMERIS_TYPE,CLASSIFICATION_TYPE,NORAD_CAT_ID,ELEMENT_SET_NO,REV_AT_EPOCH,BSTAR,MEAN_MOTION_DOT,MEAN_MOTION_DDOT
ONEWEB-0545,2022-166F,2026-06-18T15:04:47.940096,13.21814853,.000204,87.9255,243.6953,76.8360,283.3001,0,U,54647,999,17169,.65566E-2,.2721E-4,0
ONEWEB-0580,2022-166G,2026-06-18T16:17:26.395872,13.21827221,.0002226,87.9253,243.6850,88.3292,271.8097,0,U,54648,999,17174,.12109E-4,.18E-6,0
ONEWEB-0582,2022-166H,2026-06-18T11:51:00.779328,13.21827018,.0002114,87.9254,243.7140,86.5690,273.5686,0,U,54649,999,17169,.78466E-6,.13E-6,0
ONEWEB-0583,2022-166J,2026-06-18T12:07:57.193248,13.21826921,.0002035,87.9254,243.7351,95.0025,265.1342,0,U,54650,999,17170,-.34799E-3,-.131E-5,0
ONEWEB-0584,2022-166K,2026-06-18T16:15:02.062944,13.21825759,.0002099,87.9248,243.6865,95.7252,264.4121,0,U,54651,999,17171,.854E-4,.48E-6,0
ONEWEB-0585,2022-166L,2026-06-18T14:59:57.300000,13.21826751,.0001997,87.9255,243.6841,103.5123,256.6234,0,U,54652,999,17171,.16085E-3,.79E-6,0
ONEWEB-0586,2022-166M,2026-06-18T11:41:18.668832,13.21824401,.000197,87.9256,243.7368,93.7665,266.3694,0,U,54653,999,17169,.95245E-4,.52E-6,0
ONEWEB-0587,2022-166N,2026-06-18T11:55:50.642688,13.21824582,.0002053,87.9266,243.7084,108.6246,251.5110,0,U,54654,999,17185,-.38666E-4,-.3E-7,0
ONEWEB-0589,2022-166P,2026-06-18T11:36:28.095264,13.21824509,.0002372,87.9251,243.7231,77.7532,282.3868,0,U,54655,999,17171,.25677E-3,.119E-5,0
ONEWEB-0590,2022-166Q,2026-06-18T15:50:36.872736,13.21827590,.0002496,87.9262,243.6785,99.0800,261.0617,0,U,54656,999,17172,-.12278E-4,.8E-7,0
ONEWEB-0591,2022-166R,2026-06-18T16:07:47.019072,13.21826228,.0002122,87.9254,243.6906,98.4001,261.7374,0,U,54657,999,17175,-.76299E-4,-.18E-6,0
ONEWEB-0592,2022-166S,2026-06-18T16:12:36.304416,13.21827645,.0002029,87.9263,243.6682,98.6320,261.5044,0,U,54658,999,17163,-.28743E-5,.12E-6,0
ONEWEB-0593,2022-166T,2026-06-18T14:55:05.326752,13.21824400,.0001905,87.9255,243.6906,95.1946,264.9405,0,U,54659,999,17173,.11619E-3,.61E-6,0
ONEWEB-0594,2022-166U,2026-06-18T11:46:10.043328,13.21827448,.0001941,87.9251,243.7329,103.1775,256.9575,0,U,54660,999,17173,-.64478E-4,-.14E-6,0
ONEWEB-0595,2022-166V,2026-06-18T14:50:14.642592,13.21827471,.0002136,87.9262,243.6884,105.0760,255.0611,0,U,54661,999,17172,.96463E-4,.53E-6,0
ONEWEB-0596,2022-166W,2026-06-18T16:02:55.775040,13.21827181,.0002073,87.9256,243.6894,101.1107,259.0260,0,U,54662,999,17173,-.11097E-3,-.33E-6,0
ONEWEB-0597,2022-166X,2026-06-18T04:42:16.047648,13.21826679,.00019935,87.9253,243.7867,94.9553,265.1808,0,U,54663,999,17167,-.14697001E-4,.7E-7,0
ONEWEB-0600,2022-166Y,2026-06-18T15:09:37.709280,13.21823913,.0001835,87.9252,243.6914,96.7293,263.4050,0,U,54664,999,17170,.32242E-4,.26E-6,0
ONEWEB-0601,2022-166Z,2026-06-18T14:57:31.308192,13.21826099,.000204,87.9249,243.7093,91.8077,268.3290,0,U,54665,999,17189,.11371E-3,.6E-6,0
ONEWEB-0602,2022-166AA,2026-06-18T15:56:51.975744,13.21826034,.0001754,87.9254,243.7071,95.8507,264.2826,0,U,54666,999,17174,-.16008E-3,-.53E-6,0
ONEWEB-0603,2022-166AB,2026-06-18T16:05:21.363360,13.21826876,.0001964,87.9263,243.6630,96.0760,264.0597,0,U,54667,999,17167,-.81439E-4,-.21E-6,0
ONEWEB-0604,2022-166AC,2026-06-18T12:10:22.198368,13.21828781,.0002034,87.9264,243.7110,100.9061,259.2302,0,U,54668,999,17161,.23935E-3,.112E-5,0
ONEWEB-0605,2022-166AD,2026-06-18T12:00:42.424128,13.21826679,.0002514,87.9253,243.7256,88.4619,271.6802,0,U,54669,999,17168,.19657E-4,.21E-6,0
ONEWEB-0606,2022-166AE,2026-06-18T16:10:11.855712,13.21826818,.0002022,87.9251,243.7038,103.7246,256.4113,0,U,54670,999,17176,-.40936E-4,-.4E-7,0
ONEWEB-0607,2022-166AF,2026-06-18T11:43:43.984128,13.21824795,.0001959,87.9262,243.7114,94.9389,265.1969,0,U,54671,999,17171,.16942E-3,.83E-6,0
ONEWEB-0608,2022-166AG,2026-06-18T11:53:24.631008,13.21828016,.0002241,87.9265,243.7068,85.4755,274.6634,0,U,54672,999,17172,-.93368E-4,-.26E-6,0
ONEWEB-0610,2022-166AH,2026-06-18T15:02:21.681312,13.21824546,.0002016,87.9253,243.6949,81.0681,279.0681,0,U,54673,999,17164,.11778E-3,.62E-6,0
ONEWEB-0611,2022-166AJ,2026-06-18T14:52:38.935776,13.21826378,.0002045,87.9252,243.6924,102.7611,257.3752,0,U,54674,999,17163,-.46939E-3,-.181E-5,0
ONEWEB-0612,2022-166AK,2026-06-18T15:12:03.697632,13.21825412,.0002046,87.9267,243.6853,94.3780,265.7588,0,U,54675,999,17162,.75101E-4,.44E-6,0
ONEWEB-0615,2022-166AL,2026-06-18T16:32:00.026016,13.21826845,.000192,87.9256,243.6886,106.3269,253.8076,0,U,54676,999,17164,-.39662E-5,.11E-6,0
